{
"type": "FeatureCollection",
"name": "AreaOutline",
"crs": { "type": "name", "properties": { "name": "urn:ogc:def:crs:OGC:1.3:CRS84" } },
"features": [
{ "type": "Feature", "properties": { "objectid": 11, "name": "Lewisham", "gss_code": "E09000023", "hectares": 3531.706, "nonld_area": 16.795, "ons_inner": "T", "sub_2011": "East" }, "geometry": { "type": "Polygon", "coordinates": [ [ [ -0.029788744778162, 51.493031455779459 ], [ -0.028980696167599, 51.4916266642987 ], [ -0.027258832652375, 51.489434896831519 ], [ -0.024666751537033, 51.487484733970561 ], [ -0.023417868387073, 51.486786508355529 ], [ -0.02458569569322, 51.485861948760629 ], [ -0.025175115098763, 51.485022055673099 ], [ -0.025793051343446, 51.482188915946104 ], [ -0.026382646297479, 51.481509992558237 ], [ -0.023135210255591, 51.480737618154315 ], [ -0.023044926080348, 51.479629070297804 ], [ -0.02034137348655, 51.479935947894425 ], [ -0.020391960770864, 51.480230869864727 ], [ -0.018374801314524, 51.480848758492868 ], [ -0.017849200725614, 51.480880341984061 ], [ -0.016833679484732, 51.480287628119001 ], [ -0.017205397535119, 51.479985458018191 ], [ -0.018417917995318, 51.479854874959578 ], [ -0.018938024177205, 51.479451795155875 ], [ -0.019175754397112, 51.477954901557105 ], [ -0.019092461979298, 51.477252048427204 ], [ -0.020552422930728, 51.476727253784148 ], [ -0.020765683770066, 51.476458371415546 ], [ -0.020626554399625, 51.475847202716409 ], [ -0.020820636382198, 51.475588787689645 ], [ -0.022741736200758, 51.475354129368874 ], [ -0.022904729427057, 51.475081696784748 ], [ -0.022646879325148, 51.473985608308006 ], [ -0.021746565724971, 51.474026169244574 ], [ -0.020810843901394, 51.473521155726132 ], [ -0.020621814348953, 51.47319781589799 ], [ -0.020024864387089, 51.473083413836719 ], [ -0.019980314868854, 51.472782298401377 ], [ -0.0203114763081, 51.472417385942705 ], [ -0.020219321901356, 51.472184711657562 ], [ -0.019293433758873, 51.47198561093947 ], [ -0.019084311877603, 51.471229370778651 ], [ -0.018801840817742, 51.471102292285074 ], [ -0.018956150838366, 51.471063533613112 ], [ -0.018919494862229, 51.470879458856565 ], [ -0.018645980116394, 51.470645515935679 ], [ -0.019246957048853, 51.470500098086021 ], [ -0.018992475237112, 51.470059641002841 ], [ -0.019092306532353, 51.469948917289628 ], [ -0.018447750900983, 51.469605283220645 ], [ -0.017248174078097, 51.469410544409492 ], [ -0.016923753671973, 51.469056134870769 ], [ -0.016533318858654, 51.469227591709526 ], [ -0.015878852958675, 51.468549248573517 ], [ -0.015064601238739, 51.468036364803353 ], [ -0.013103340159427, 51.468936616839471 ], [ -0.015158761744043, 51.471769109312717 ], [ -0.014502892113473, 51.471918080626573 ], [ -0.014517200615721, 51.472152137961295 ], [ -0.014043756843504, 51.472675601193188 ], [ -0.013337480450716, 51.472393852291219 ], [ -0.012493109789899, 51.472340876079556 ], [ -0.008117780040998, 51.472756755980008 ], [ -0.001470932480617, 51.471837012828686 ], [ -0.000333501374139, 51.471834714988418 ], [ 0.01814910466305, 51.473853618771656 ], [ 0.01501038358062, 51.473080242560009 ], [ 0.015020689417489, 51.472529703789803 ], [ 0.0153830432122, 51.471570237107052 ], [ 0.016231103621979, 51.470000799631329 ], [ 0.016719809320108, 51.469491496380869 ], [ 0.016558529056621, 51.469131857806609 ], [ 0.016356083846776, 51.46898156063417 ], [ 0.015012796831122, 51.469572093908297 ], [ 0.01350663414994, 51.469897418198663 ], [ 0.012627233553543, 51.469807293308286 ], [ 0.013094456124805, 51.468122110139319 ], [ 0.012718388796522, 51.467624963653932 ], [ 0.012716717033288, 51.467357904702133 ], [ 0.013270939143082, 51.466832205204803 ], [ 0.011485014727625, 51.466228847158384 ], [ 0.009122661816504, 51.46587454532969 ], [ 0.009199763127609, 51.465564770516501 ], [ 0.009013648514479, 51.464736120675795 ], [ 0.009850662135738, 51.462290119087037 ], [ 0.009772761200998, 51.460876879717347 ], [ 0.009973073101787, 51.459341066969401 ], [ 0.011507327675469, 51.456877706219345 ], [ 0.011541864326367, 51.45661542206556 ], [ 0.014056363333782, 51.455726946972895 ], [ 0.017539709900663, 51.455039378620327 ], [ 0.017533396857146, 51.454112323522672 ], [ 0.018067416956319, 51.453002409889287 ], [ 0.018357470017346, 51.451582841422031 ], [ 0.019561801467697, 51.451705095842726 ], [ 0.01989754983936, 51.450735278768818 ], [ 0.015148601767328, 51.450227040066842 ], [ 0.01503501181633, 51.450621980113105 ], [ 0.014901829359617, 51.4506044837103 ], [ 0.015089643567745, 51.450032008426724 ], [ 0.018011365110766, 51.44941252285156 ], [ 0.021953536581309, 51.448958830529754 ], [ 0.022157378634959, 51.448718803390385 ], [ 0.022968401045641, 51.447204804816693 ], [ 0.021236015352195, 51.446691504046932 ], [ 0.021289107167003, 51.444992733159246 ], [ 0.021522507732214, 51.444444640958082 ], [ 0.020622851037183, 51.444211041779546 ], [ 0.021508928187427, 51.442735327818674 ], [ 0.023664576427416, 51.442083937194703 ], [ 0.025442291689898, 51.441738495738427 ], [ 0.027793592326414, 51.441510810246804 ], [ 0.029385099047847, 51.441705407230685 ], [ 0.029108696634277, 51.441475473495089 ], [ 0.028602952317611, 51.440453629334804 ], [ 0.028902014764505, 51.439376494235525 ], [ 0.02883987312472, 51.43878583219422 ], [ 0.024816934980244, 51.438237549116444 ], [ 0.024915457500454, 51.437211550981544 ], [ 0.02540210716165, 51.435689632256945 ], [ 0.025770852288019, 51.435991720546191 ], [ 0.027266443554367, 51.436559407959692 ], [ 0.028700153800975, 51.436411408158143 ], [ 0.029091893393312, 51.434666288422854 ], [ 0.029059628650113, 51.4343601863918 ], [ 0.028610531345723, 51.434030720928725 ], [ 0.031407807339225, 51.432579372470812 ], [ 0.031073077198274, 51.432201167852128 ], [ 0.031173795096488, 51.43210409647525 ], [ 0.031613903918587, 51.432555117274816 ], [ 0.032185154057249, 51.43236265578755 ], [ 0.032477921865115, 51.43189263790002 ], [ 0.033249881776998, 51.432235374960278 ], [ 0.033726725284771, 51.43169920928549 ], [ 0.037724721598697, 51.433346548446778 ], [ 0.037513674183067, 51.432225185270802 ], [ 0.037547956571269, 51.431379241381066 ], [ 0.038323981432354, 51.429001472210714 ], [ 0.038358316017019, 51.428027825300425 ], [ 0.037857193998582, 51.427790128611271 ], [ 0.037883332873136, 51.427601719038002 ], [ 0.038489921573947, 51.427591171451638 ], [ 0.038639313758644, 51.426520196738061 ], [ 0.038798742670308, 51.42651472590321 ], [ 0.038852882074463, 51.426083016195832 ], [ 0.03896691397365, 51.42609182436567 ], [ 0.039054671413479, 51.424671204374846 ], [ 0.038692183700415, 51.424638839534168 ], [ 0.036211880841109, 51.422365364593084 ], [ 0.034592005102491, 51.423394405601073 ], [ 0.033790204024045, 51.424092683666174 ], [ 0.03123803117799, 51.425509264188925 ], [ 0.030110693581482, 51.425973051845531 ], [ 0.027240297346552, 51.42807134691207 ], [ 0.025436668615271, 51.428989237969198 ], [ 0.023744260903344, 51.42825855482922 ], [ 0.021161473568845, 51.426843546224021 ], [ 0.018801374169337, 51.427050586227089 ], [ 0.017461901976896, 51.426849720815483 ], [ 0.016074277044685, 51.426208112169498 ], [ 0.01413373101233, 51.42617492032624 ], [ 0.01442168207689, 51.425232003200577 ], [ 0.013539205705794, 51.425085288534447 ], [ 0.013371016694348, 51.424695182248534 ], [ 0.011839563039293, 51.424051493124473 ], [ 0.01164438357264, 51.42370141695303 ], [ 0.011012273300837, 51.42349013421655 ], [ 0.009992850669742, 51.422483312757464 ], [ 0.008102897887634, 51.423042691174089 ], [ 0.007375517088677, 51.421378852135078 ], [ 0.006874286817491, 51.421494450434487 ], [ 0.006762050167502, 51.42093520828216 ], [ 0.006323964598233, 51.421014650636387 ], [ 0.005870004453778, 51.420074556438941 ], [ 0.005254264001537, 51.419315289505199 ], [ 0.005541099618124, 51.419132321194553 ], [ 0.005354922278401, 51.418986222320697 ], [ 0.005698151231848, 51.418514512717827 ], [ 0.003519569992993, 51.417404260157369 ], [ 0.0017549407051, 51.418557631810984 ], [ -0.000051046258727, 51.417645091843617 ], [ -0.000320974547566, 51.416337618851827 ], [ -0.000848919530663, 51.416103812432084 ], [ -0.000727857646141, 51.415911995583762 ], [ -0.003377851593824, 51.415660390733592 ], [ -0.003572129871188, 51.41555848148105 ], [ -0.003257787104937, 51.415049520049138 ], [ -0.004967635898792, 51.414589413364311 ], [ -0.005485357418832, 51.415481334159047 ], [ -0.00550798224005, 51.415787480473234 ], [ -0.005973295876847, 51.416033710124637 ], [ -0.006538909437454, 51.415991170258522 ], [ -0.006677337150268, 51.415189552071716 ], [ -0.006601170345813, 51.414659469873634 ], [ -0.008459842819959, 51.414347530226721 ], [ -0.009216815865865, 51.413872070173944 ], [ -0.01051930710477, 51.413550652118836 ], [ -0.011819394771006, 51.413549328348068 ], [ -0.014236472588289, 51.413656846949472 ], [ -0.014351639202223, 51.413919593011286 ], [ -0.014532706676224, 51.413922659981864 ], [ -0.014126466813988, 51.415100148426454 ], [ -0.017961039738544, 51.415055330623183 ], [ -0.017820571011891, 51.415742712247457 ], [ -0.021014314465567, 51.416018784240343 ], [ -0.021015485040637, 51.416158194072125 ], [ -0.022159399290819, 51.416744946985432 ], [ -0.021710145922075, 51.417290431890279 ], [ -0.022529195132847, 51.417540760224682 ], [ -0.021358257824088, 51.41841220272623 ], [ -0.021166775749432, 51.419482722113216 ], [ -0.020751511584081, 51.419939746445479 ], [ -0.021648656931035, 51.420447696057373 ], [ -0.020921733169772, 51.420927340345891 ], [ -0.022237215726206, 51.421774182391907 ], [ -0.022580054630471, 51.421562336564811 ], [ -0.023435108165941, 51.422513810659787 ], [ -0.024401419420849, 51.423154200578921 ], [ -0.025462306254906, 51.423469733489917 ], [ -0.025770798208392, 51.423754606123325 ], [ -0.025973795916285, 51.423616835439262 ], [ -0.027766162166885, 51.424483332156854 ], [ -0.027817753466411, 51.424688338096075 ], [ -0.030216044771009, 51.425682792654989 ], [ -0.031971535150584, 51.425536007610219 ], [ -0.031794113042372, 51.42471018213228 ], [ -0.034213119514323, 51.424754355903367 ], [ -0.034201152182181, 51.425100380765194 ], [ -0.037459566445849, 51.424992214162813 ], [ -0.038450357075136, 51.423957534898804 ], [ -0.04028977611373, 51.4243012602467 ], [ -0.041043018318394, 51.424245507674016 ], [ -0.041686566906682, 51.42382820202856 ], [ -0.041581824719882, 51.423653788403129 ], [ -0.042845825142088, 51.423224360630918 ], [ -0.042989226777221, 51.423403015897662 ], [ -0.043799569887335, 51.423154851876177 ], [ -0.043664946012815, 51.422905300297316 ], [ -0.04626264740482, 51.422365895467642 ], [ -0.046239961296083, 51.422628109707233 ], [ -0.045992813437558, 51.422622190684351 ], [ -0.04598953851149, 51.422800195320882 ], [ -0.048527799305345, 51.422845186370473 ], [ -0.051747918201678, 51.42251656466906 ], [ -0.05178321309577, 51.423581011711519 ], [ -0.054754518225189, 51.423726613610178 ], [ -0.055128896685586, 51.422937857645273 ], [ -0.058099277910373, 51.423172389118832 ], [ -0.058054804064607, 51.423271473009159 ], [ -0.061397339002698, 51.424468033941416 ], [ -0.06154830042503, 51.424673771425567 ], [ -0.061419511042135, 51.424793943543186 ], [ -0.062577665694332, 51.42519710003684 ], [ -0.06440331742662, 51.425327100672838 ], [ -0.064578498640325, 51.4250620069717 ], [ -0.06581584063466, 51.425327949111413 ], [ -0.066036746408316, 51.425069903225015 ], [ -0.067981211093271, 51.425827715029548 ], [ -0.06788931879557, 51.425926020696714 ], [ -0.06866456482872, 51.425996359138836 ], [ -0.068856073481029, 51.425616418649177 ], [ -0.070633821787723, 51.426201473183333 ], [ -0.072354712759796, 51.426292754003008 ], [ -0.074115656952291, 51.426115780220393 ], [ -0.074906923120159, 51.425736695607682 ], [ -0.078310107444103, 51.420563232553775 ], [ -0.078522792847386, 51.419847294215991 ], [ -0.080066252254011, 51.419671165671581 ], [ -0.082320158243275, 51.419771040697505 ], [ -0.085513160826155, 51.419288203437979 ], [ -0.086399844128517, 51.419305390898643 ], [ -0.088164539909202, 51.419926834567221 ], [ -0.089558320892404, 51.420959468008753 ], [ -0.091368993528602, 51.42172279878173 ], [ -0.092281956136095, 51.422353678024493 ], [ -0.093893118399817, 51.422798071980978 ], [ -0.098082302062723, 51.422573900659032 ], [ -0.106029080829532, 51.422576771955264 ], [ -0.109347854111921, 51.423157368776124 ], [ -0.11265972311817, 51.42324405722438 ], [ -0.113796876871202, 51.42245482628023 ], [ -0.114828380707339, 51.421225936494167 ], [ -0.115689205308873, 51.420578821283989 ], [ -0.11775691682023, 51.419821606377212 ], [ -0.119820737048862, 51.41880709133202 ], [ -0.120745750620009, 51.417047660634509 ], [ -0.12245543845309, 51.415299900590398 ], [ -0.122455022327124, 51.4150292117574 ], [ -0.122967393886352, 51.415054506971032 ], [ -0.123379694716787, 51.414713990071135 ], [ -0.12404837288445, 51.414609589842314 ], [ -0.124432744159665, 51.414002435264138 ], [ -0.124441571619522, 51.413364988361572 ], [ -0.124910545080286, 51.413290659100483 ], [ -0.125563103352955, 51.412911711112287 ], [ -0.125760065987182, 51.412631588422514 ], [ -0.126233903074321, 51.412930532322733 ], [ -0.127402280476902, 51.412491474467252 ], [ -0.127725783837475, 51.412316787142657 ], [ -0.127862184176513, 51.4120051171125 ], [ -0.132688579898126, 51.412348307202144 ], [ -0.133546440523623, 51.412576003227862 ], [ -0.13332827084281, 51.412883681063533 ], [ -0.133551994934079, 51.412934007414485 ], [ -0.133777365409545, 51.412555400194783 ], [ -0.134074017252725, 51.410990869381301 ], [ -0.138076125558395, 51.411801740836822 ], [ -0.141183752576768, 51.412758369569453 ], [ -0.142556455371804, 51.413342152963587 ], [ -0.144844231202265, 51.412388209473441 ], [ -0.145144266854283, 51.412543132011351 ], [ -0.14677865886836, 51.412559951062761 ], [ -0.148064704710415, 51.412869817706557 ], [ -0.147057658802156, 51.413804478461721 ], [ -0.144321753763978, 51.415347610848741 ], [ -0.144983699965788, 51.415799624913809 ], [ -0.143023004346325, 51.417124752842817 ], [ -0.143234571815159, 51.41726299275421 ], [ -0.137826087467323, 51.421106268155818 ], [ -0.13850477484239, 51.422669193289451 ], [ -0.138896365231412, 51.424572886114149 ], [ -0.138846135439416, 51.426092771957457 ], [ -0.138411467105863, 51.428754038272352 ], [ -0.138372783693387, 51.430555580313261 ], [ -0.135238385678618, 51.430334922547743 ], [ -0.136429847791224, 51.433828668450182 ], [ -0.136906158328247, 51.433932460272068 ], [ -0.137831850594027, 51.433776302171708 ], [ -0.13908452948567, 51.434814173562977 ], [ -0.139622400868034, 51.435315514161601 ], [ -0.139947256836421, 51.436881817524771 ], [ -0.139711468072766, 51.43730253624215 ], [ -0.138281157385075, 51.438048714802001 ], [ -0.137658032938097, 51.438581981482365 ], [ -0.137234211285609, 51.439733517139622 ], [ -0.137451543752595, 51.440192004836454 ], [ -0.137346218116209, 51.440340510583148 ], [ -0.136985733377972, 51.440252947718598 ], [ -0.135878350350254, 51.442006017786603 ], [ -0.137859480975246, 51.441695782956032 ], [ -0.143595137640407, 51.441838921195945 ], [ -0.145381386102149, 51.444917555631115 ], [ -0.145670917394158, 51.445869976912505 ], [ -0.144769666518396, 51.448542762403747 ], [ -0.143334611777809, 51.449505650761886 ], [ -0.142558179500326, 51.45033867246574 ], [ -0.142297079360679, 51.450991905372291 ], [ -0.143586748561059, 51.451167011666634 ], [ -0.147704518255084, 51.45234005351297 ], [ -0.147352553846659, 51.452963981926935 ], [ -0.147625667970476, 51.452972794129749 ], [ -0.148315447773102, 51.457306487288257 ], [ -0.149365196471534, 51.459362603740082 ], [ -0.149677433536596, 51.461325233372619 ], [ -0.150706635999468, 51.462860329507386 ], [ -0.151206399699729, 51.46588524515753 ], [ -0.150445333976345, 51.465978457258153 ], [ -0.150593708371277, 51.467615661577248 ], [ -0.14307536508314, 51.470520178486275 ], [ -0.142651804400961, 51.470064736465041 ], [ -0.141470644306002, 51.470679106000198 ], [ -0.1417593504168, 51.470909397279179 ], [ -0.140317583684073, 51.471593365339359 ], [ -0.139841835440031, 51.471324132980449 ], [ -0.139291156367998, 51.471516832237775 ], [ -0.139574648560509, 51.471733557183775 ], [ -0.139477044691639, 51.471796755887688 ], [ -0.138324112763785, 51.471962807852741 ], [ -0.13689296876663, 51.473091141060721 ], [ -0.136233508268519, 51.472701171149872 ], [ -0.135323664160808, 51.472872855600762 ], [ -0.134532670281452, 51.473449295002865 ], [ -0.134424069299745, 51.473923279705126 ], [ -0.135205511934083, 51.474288222314804 ], [ -0.134685766939366, 51.47495710424689 ], [ -0.134502798952979, 51.474888546952684 ], [ -0.134086609398178, 51.475277602495389 ], [ -0.133620976812935, 51.476243197570732 ], [ -0.131963184556593, 51.478437085360433 ], [ -0.131519433953601, 51.479252843050652 ], [ -0.13016404302851, 51.480667364947173 ], [ -0.1299226035753, 51.481183290145644 ], [ -0.127471519588633, 51.482023657790741 ], [ -0.127024134725715, 51.483628896002024 ], [ -0.126338781965833, 51.484466858213011 ], [ -0.12814685919612, 51.484736737288742 ], [ -0.129466396569365, 51.485893570741069 ], [ -0.126739907440087, 51.487999306921381 ], [ -0.124674410084103, 51.490279219930727 ], [ -0.123947974908852, 51.49130715835296 ], [ -0.123850543638578, 51.492101454099156 ], [ -0.122984274068146, 51.493690999346882 ], [ -0.12247637609037, 51.495883394186173 ], [ -0.122235301423827, 51.498242827156538 ], [ -0.121027061553642, 51.505021986966987 ], [ -0.120778367422216, 51.505672673806444 ], [ -0.119961841081114, 51.506674868518061 ], [ -0.118315130699668, 51.50809899077958 ], [ -0.115272088091769, 51.509238976912556 ], [ -0.111048039259502, 51.509800525202436 ], [ -0.104614636778382, 51.509875705836478 ], [ -0.104746713522474, 51.509644926592479 ], [ -0.104634434129446, 51.509607141254307 ], [ -0.104662494147284, 51.508410655190062 ], [ -0.104179123828326, 51.508425325712871 ], [ -0.104187897838911, 51.509046868405399 ], [ -0.104063657889633, 51.509088925048502 ], [ -0.104178690684192, 51.509580891535315 ], [ -0.104011826481046, 51.509642942664833 ], [ -0.104157639443521, 51.509671378513708 ], [ -0.104154346279517, 51.509854778266494 ], [ -0.096824435655895, 51.509448297177144 ], [ -0.091902432294722, 51.508359334012304 ], [ -0.085161670284832, 51.50769192246571 ], [ -0.080750784275402, 51.507001067050282 ], [ -0.073175170788076, 51.50495320720762 ], [ -0.070454471420286, 51.503796942201298 ], [ -0.067881633057016, 51.503031540995245 ], [ -0.064206256274121, 51.502172360648331 ], [ -0.06003915665312, 51.501664638461079 ], [ -0.057198695825407, 51.502082526940441 ], [ -0.054847012134405, 51.502796223441912 ], [ -0.04812026373831, 51.506583672686872 ], [ -0.0451247666355, 51.508054444208724 ], [ -0.043585143529665, 51.508437038693906 ], [ -0.042076964934446, 51.508589924168739 ], [ -0.038167199310926, 51.508557854389061 ], [ -0.03593412323883, 51.508074432359393 ], [ -0.03240363959249, 51.507000852283525 ], [ -0.030731808484792, 51.506104073799115 ], [ -0.029881807136909, 51.505097879473801 ], [ -0.029560133190571, 51.50437124451669 ], [ -0.029635471138213, 51.504061357568929 ], [ -0.029345943544069, 51.502690472286069 ], [ -0.029996118831207, 51.498409099829587 ], [ -0.030177822762541, 51.496067706016731 ], [ -0.030115584957679, 51.494671860813696 ], [ -0.029788744778162, 51.493031455779459 ] ] ] } }
]
}
